DMSP 5D-3 F16 (USA 172) 
1 28054U 03048A   26177.99645914  .00000022  00000+0  35186-4 0  9994
2 28054  98.9887 201.8896 0008095 115.6213 302.8597 14.14483720170876
METEOSAT-9 (MSG-2)      
1 28912U 05049B   26177.81720226  .00000126  00000+0  00000+0 0  9998
2 28912   9.3827  54.0739 0001988 356.9985 203.7944  1.00277622  7094
DMSP 5D-3 F17 (USA 191) 
1 29522U 06050A   26177.92785150  .00000047  00000+0  46656-4 0  9992
2 29522  98.7378 184.2986 0010784  33.9203 326.2658 14.14994083 13809
FENGYUN 3A              
1 32958U 08026A   26177.84453911  .00000066  00000+0  51944-4 0  9999
2 32958  98.6885 118.4972 0009862  98.8001 261.4293 14.19573116936773
GOES 14                 
1 35491U 09033A   26177.90647286 -.00000314  00000+0  00000+0 0  9999
2 35491   1.7150  82.9367 0002247  19.0626 275.5145  1.00108224  6689
DMSP 5D-3 F18 (USA 210) 
1 35951U 09057A   26177.97058170  .00000225  00000+0  13981-3 0  9997
2 35951  98.9041 158.7186 0010202 218.8247 141.2194 14.14902102860975
EWS-G2 (GOES 15)        
1 36411U 10008A   26177.86572287  .00000031  00000+0  00000+0 0  9994
2 36411   1.3040  82.7156 0005320  42.8908 164.5901  1.00268000 59732
COMS 1                  
1 36744U 10032A   26177.95757811  .00000041  00000+0  00000+0 0  9999
2 36744   4.8297  75.2434 0011917  12.9181 206.1281  0.99166709 51184
FENGYUN 3B              
1 37214U 10059A   26178.00297666  .00000175  00000+0  11383-3 0  9993
2 37214  98.9621 224.0591 0022472 156.2877 319.5612 14.14843088808813
SUOMI NPP               
1 37849U 11061A   26177.92664217  .00000053  00000+0  46226-4 0  9991
2 37849  98.7954 118.7362 0000974 338.1196  21.9938 14.19519276759822
METEOSAT-10 (MSG-3)     
1 38552U 12035B   26177.30926316  .00000000  00000+0  00000+0 0  9995
2 38552   4.6930  60.9813 0001742   8.4001 316.5762  1.00268518 50940
METOP-B                 
1 38771U 12049A   26177.90358525  .00000095  00000+0  63189-4 0  9996
2 38771  98.6500 229.2088 0001624 350.6536   9.4611 14.21441797714641
INSAT-3D                
1 39216U 13038B   26177.90517286 -.00000329  00000+0  00000+0 0  9990
2 39216   1.9510  82.4302 0001145   2.4093 285.5664  1.00271812 47174
FENGYUN 3C              
1 39260U 13052A   26177.93809522  .00000070  00000+0  56695-4 0  9993
2 39260  98.4983 151.3653 0014667   0.2879 359.8302 14.15757185659944
METEOR-M 2              
1 40069U 14037A   26177.92980907 -.00000044  00000+0 -73104-6 0  9991
2 40069  98.5111 153.3230 0006265  19.8701 340.2719 14.21463404620708
HIMAWARI-8              
1 40267U 14060A   26177.90733954 -.00000264  00000+0  00000+0 0  9994
2 40267   0.0121 315.2307 0001136 135.4222 291.6652  1.00274633 42852
FENGYUN 2G              
1 40367U 14090A   26177.68534693 -.00000296  00000+0  00000+0 0  9997
2 40367   5.6634  72.7057 0003579 150.4754  37.9966  1.00269056 42098
METEOSAT-11 (MSG-4)     
1 40732U 15034A   26177.81006355  .00000070  00000+0  00000+0 0  9995
2 40732   3.2246  71.0499 0002243 347.6617 157.2677  1.00266080  7319
ELEKTRO-L 2             
1 41105U 15074A   26176.94987031 -.00000113  00000+0  00000+0 0  9995
2 41105   6.7170  70.4166 0000727 286.6211 244.4527  1.00271163 38594
SENTINEL-3A             
1 41335U 16011A   26177.96462096  .00000092  00000+0  56213-4 0  9991
2 41335  98.6246 245.2077 0001437  96.8765 263.2579 14.26735132539450
INSAT-3DR               
1 41752U 16054A   26177.89416613 -.00000065  00000+0  00000+0 0  9996
2 41752   0.1304  86.1921 0010054 186.9132  37.7778  1.00272413 35913
HIMAWARI-9              
1 41836U 16064A   26177.97863821 -.00000263  00000+0  00000+0 0  9996
2 41836   0.0171  44.9539 0001158  68.4076 294.8031  1.00271011 35304
GOES 16                 
1 41866U 16071A   26177.93006260 -.00000080  00000+0  00000+0 0  9996
2 41866   0.3654  85.5325 0000584   9.0124  50.6297  1.00272080 35205
FENGYUN 4A              
1 41882U 16077A   26177.54757616 -.00000348  00000+0  00000+0 0  9992
2 41882   2.3469  80.1884 0008229 152.1316   3.0696  1.00264621 35024
CYGFM05                 
1 41884U 16078A   26177.47730451  .00020719  00000+0  27679-3 0  9993
2 41884  34.9552 199.0543 0008074 235.8683 124.1276 15.57045201530203
CYGFM04                 
1 41885U 16078B   26177.67440952  .00028270  00000+0  31197-3 0  9990
2 41885  34.9304 164.9558 0007282 273.9275  86.0618 15.62010492530482
CYGFM02                 
1 41886U 16078C   26177.97561724  .00037411  00000+0  36451-3 0  9990
2 41886  34.9385 157.1895 0008238 278.4212  81.5581 15.65112987530702
CYGFM01                 
1 41887U 16078D   26177.39784161  .00023434  00000+0  30491-3 0  9997
2 41887  34.9382 200.5628 0007851 229.8106 130.1932 15.57732603530142
CYGFM08                 
1 41888U 16078E   26177.40537000  .00028134  00000+0  32942-3 0  9993
2 41888  34.9412 179.8462 0009155 258.1098 101.8601 15.60462405530417
CYGFM07                 
1 41890U 16078G   26177.68379649  .00027265  00000+0  31807-3 0  9992
2 41890  34.9428 166.3245 0007692 273.4338  86.5507 15.60577907530483
CYGFM03                 
1 41891U 16078H   26177.97469521  .00029586  00000+0  34490-3 0  9993
2 41891  34.9381 166.3210 0007329 265.2409  94.7479 15.60589447530503
