OBJECT_NAME,OBJECT_ID,EPOCH,MEAN_MOTION,ECCENTRICITY,INCLINATION,RA_OF_ASC_NODE,ARG_OF_PERICENTER,MEAN_ANOMALY,EPHEMERIS_TYPE,CLASSIFICATION_TYPE,NORAD_CAT_ID,ELEMENT_SET_NO,REV_AT_EPOCH,BSTAR,MEAN_MOTION_DOT,MEAN_MOTION_DDOT
DMSP 5D-3 F16 (USA 172),2003-048A,2026-06-26T23:54:54.069696,14.14483720,.0008095,98.9887,201.8896,115.6213,302.8597,0,U,28054,999,17087,.35186025E-4,.22E-6,0
METEOSAT-9 (MSG-2),2005-049B,2026-06-26T19:36:46.275264,1.00277622,.00019886,9.3827,54.0739,356.9985,203.7944,0,U,28912,999,709,0,.126E-5,0
DMSP 5D-3 F17 (USA 191),2006-050A,2026-06-26T22:16:06.369600,14.14994083,.00107841,98.7378,184.2986,33.9203,326.2658,0,U,29522,999,1380,.46655775E-4,.47E-6,0
FENGYUN 3A,2008-026A,2026-06-26T20:16:08.179104,14.19573116,.00098624,98.6885,118.4972,98.8001,261.4293,0,U,32958,999,93677,.51943769E-4,.66E-6,0
GOES 14,2009-033A,2026-06-26T21:45:19.255104,1.00108224,.00022472,1.7150,82.9367,19.0626,275.5145,0,U,35491,999,668,0,-.314E-5,0
DMSP 5D-3 F18 (USA 210),2009-057A,2026-06-26T23:17:38.258880,14.14902102,.00102021,98.9041,158.7186,218.8247,141.2194,0,U,35951,999,86097,.13981125E-3,.225E-5,0
EWS-G2 (GOES 15),2010-008A,2026-06-26T20:46:38.455968,1.00268000,.00053206,1.3040,82.7156,42.8908,164.5901,0,U,36411,999,5973,0,.31E-6,0
COMS 1,2010-032A,2026-06-26T22:58:54.748704,0.99166709,.00119179,4.8297,75.2434,12.9181,206.1281,0,U,36744,999,5118,0,.41E-6,0
FENGYUN 3B,2010-059A,2026-06-27T00:04:17.183424,14.14843088,.00224723,98.9621,224.0591,156.2877,319.5612,0,U,37214,999,80881,.113827E-3,.175E-5,0
SUOMI NPP,2011-061A,2026-06-26T22:14:21.883488,14.19519276,.00009742,98.7954,118.7362,338.1196,21.9938,0,U,37849,999,75982,.4622562E-4,.53E-6,0
METEOSAT-10 (MSG-3),2012-035B,2026-06-26T07:25:20.337024,1.00268518,.0001742,4.6930,60.9813,8.4001,316.5762,0,U,38552,999,5094,0,0,0
METOP-B,2012-049A,2026-06-26T21:41:09.765600,14.21441797,.00016249,98.6500,229.2088,350.6536,9.4611,0,U,38771,999,71464,.63188692E-4,.95E-6,0
INSAT-3D,2013-038B,2026-06-26T21:43:26.935104,1.00271812,.00011457,1.9510,82.4302,2.4093,285.5664,0,U,39216,999,4717,0,-.329E-5,0
FENGYUN 3C,2013-052A,2026-06-26T22:30:51.427008,14.15757185,.00146675,98.4983,151.3653,0.2879,359.8302,0,U,39260,999,65994,.56695065E-4,.7E-6,0
METEOR-M 2,2014-037A,2026-06-26T22:18:55.503648,14.21463404,.00062657,98.5111,153.3230,19.8701,340.2719,0,U,40069,999,62070,-.731037E-6,-.44E-6,0
HIMAWARI-8,2014-060A,2026-06-26T21:46:34.136256,1.00274633,.00011363,0.0121,315.2307,135.4222,291.6652,0,U,40267,999,4285,0,-.264E-5,0
FENGYUN 2G,2014-090A,2026-06-26T16:26:53.974752,1.00269056,.00035792,5.6634,72.7057,150.4754,37.9966,0,U,40367,999,4209,0,-.296E-5,0
METEOSAT-11 (MSG-4),2015-034A,2026-06-26T19:26:29.490720,1.00266080,.00022432,3.2246,71.0499,347.6617,157.2677,0,U,40732,999,731,0,.7E-6,0
ELEKTRO-L 2,2015-074A,2026-06-25T22:47:48.794784,1.00271163,.00007276,6.7170,70.4166,286.6211,244.4527,0,U,41105,999,3859,0,-.113E-5,0
SENTINEL-3A,2016-011A,2026-06-26T23:09:03.250944,14.26735132,.00014379,98.6246,245.2077,96.8765,263.2579,0,U,41335,999,53945,.5621261E-4,.92E-6,0
INSAT-3DR,2016-054A,2026-06-26T21:27:35.953632,1.00272413,.00100549,0.1304,86.1921,186.9132,37.7778,0,U,41752,999,3591,0,-.65E-6,0
HIMAWARI-9,2016-064A,2026-06-26T23:29:14.341344,1.00271011,.00011582,0.0171,44.9539,68.4076,294.8031,0,U,41836,999,3530,0,-.263E-5,0
GOES 16,2016-071A,2026-06-26T22:19:17.408640,1.00272080,.00005846,0.3654,85.5325,9.0124,50.6297,0,U,41866,999,3520,0,-.8E-6,0
FENGYUN 4A,2016-077A,2026-06-26T13:08:30.580224,1.00264621,.0008229,2.3469,80.1884,152.1316,3.0696,0,U,41882,999,3502,0,-.348E-5,0
CYGFM05,2016-078A,2026-06-26T11:27:19.109664,15.57045201,.0008074,34.9552,199.0543,235.8683,124.1276,0,U,41884,999,53020,.27679E-3,.20719E-3,0
CYGFM04,2016-078B,2026-06-26T16:11:08.982528,15.62010492,.00072822,34.9304,164.9558,273.9275,86.0618,0,U,41885,999,53048,.3119673E-3,.2827E-3,0
CYGFM02,2016-078C,2026-06-26T23:24:53.329536,15.65112987,.00082384,34.9385,157.1895,278.4212,81.5581,0,U,41886,999,53070,.36451095E-3,.37411E-3,0
CYGFM01,2016-078D,2026-06-26T09:32:53.515104,15.57732603,.0007851,34.9382,200.5628,229.8106,130.1932,0,U,41887,999,53014,.30491E-3,.23434E-3,0
CYGFM08,2016-078E,2026-06-26T09:43:43.968000,15.60462405,.0009155,34.9412,179.8462,258.1098,101.8601,0,U,41888,999,53041,.32942E-3,.28134E-3,0
CYGFM07,2016-078G,2026-06-26T16:24:40.016736,15.60577907,.00076925,34.9428,166.3245,273.4338,86.5507,0,U,41890,999,53048,.31807455E-3,.27265E-3,0
CYGFM03,2016-078H,2026-06-26T23:23:33.666144,15.60589447,.00073296,34.9381,166.3210,265.2409,94.7479,0,U,41891,999,53050,.34489553E-3,.29586E-3,0
